STARLINK-37214          
1 68345U 26059AA  26090.66668981 -.01977767  00000+0 -10059-1 0  9996
2 68345  53.1593 252.5383 0000591  65.4106 246.4881 15.83790224  2577
